[{"OBJECT_NAME":"STARLINK-31630","OBJECT_ID":"2024-050T","EPOCH":"2026-03-09T13:39:04.940352","MEAN_MOTION":15.30200807,"ECCENTRICITY":0.0001409,"INCLINATION":53.16,"RA_OF_ASC_NODE":168.5079,"ARG_OF_PERICENTER":92.3163,"MEAN_ANOMALY":267.7999,"EPHEMERIS_TYPE":0,"CLASSIFICATION_TYPE":"U","NORAD_CAT_ID":59271,"ELEMENT_SET_NO":999,"REV_AT_EPOCH":11071,"BSTAR":-5.7526e-5,"MEAN_MOTION_DOT":-2.063e-5,"MEAN_MOTION_DDOT":0},{"OBJECT_NAME":"STARLINK-32678","OBJECT_ID":"2024-239J","EPOCH":"2026-03-09T15:15:34.835040","MEAN_MOTION":15.30198558,"ECCENTRICITY":8.08e-5,"INCLINATION":53.1608,"RA_OF_ASC_NODE":181.5302,"ARG_OF_PERICENTER":116.9668,"MEAN_ANOMALY":243.1415,"EPHEMERIS_TYPE":0,"CLASSIFICATION_TYPE":"U","NORAD_CAT_ID":62309,"ELEMENT_SET_NO":999,"REV_AT_EPOCH":6955,"BSTAR":0.00068165,"MEAN_MOTION_DOT":0.00019883,"MEAN_MOTION_DDOT":0}]
